[{"OBJECT_NAME":"STARLINK-3635","OBJECT_ID":"2022-025AB","EPOCH":"2026-03-09T22:42:59.933664","MEAN_MOTION":15.08824126,"ECCENTRICITY":0.00012025,"INCLINATION":53.2186,"RA_OF_ASC_NODE":37.9675,"ARG_OF_PERICENTER":98.7325,"MEAN_ANOMALY":261.3803,"EPHEMERIS_TYPE":0,"CLASSIFICATION_TYPE":"U","NORAD_CAT_ID":51981,"ELEMENT_SET_NO":999,"REV_AT_EPOCH":22109,"BSTAR":0.00010727137,"MEAN_MOTION_DOT":1.419e-5,"MEAN_MOTION_DDOT":0},{"OBJECT_NAME":"ICEYE-X67","OBJECT_ID":"2025-248K","EPOCH":"2026-03-09T22:00:01.999584","MEAN_MOTION":15.09405994,"ECCENTRICITY":0.00063951,"INCLINATION":45.4045,"RA_OF_ASC_NODE":295.7576,"ARG_OF_PERICENTER":209.4534,"MEAN_ANOMALY":51.9892,"EPHEMERIS_TYPE":0,"CLASSIFICATION_TYPE":"U","NORAD_CAT_ID":66302,"ELEMENT_SET_NO":999,"REV_AT_EPOCH":578,"BSTAR":-0.000164009,"MEAN_MOTION_DOT":-2.917e-5,"MEAN_MOTION_DDOT":0}]
